{"type": "FeatureCollection", "features": [ {"type": "Feature", "properties": {"norad_id": 36278, "name": "FENGYUN 1C DEB", "group": "fengyun-1c-debris", "lat": 8.0922676374408, "lon": 99.34603663431697, "alt_km": 830.2703075098516, "timestamp": "2025-12-25T09:48:52.578433+00:00", "meta": {"OBJECT_NAME": "FENGYUN 1C DEB", "OBJECT_ID": "1999-025DXF", "EPOCH": "2025-12-24T12:40:14.200032", "MEAN_MOTION": 14.17401848, "ECCENTRICITY": 0.00606079, "INCLINATION": 99.1252, "RA_OF_ASC_NODE": 277.1324, "ARG_OF_PERICENTER": 257.0871, "MEAN_ANOMALY": 102.3528, "EPHEMERIS_TYPE": 0, "CLASSIFICATION_TYPE": "U", "NORAD_CAT_ID": 36278, "ELEMENT_SET_NO": 999, "REV_AT_EPOCH": 93643, "BSTAR": 0.00043605527, "MEAN_MOTION_DOT": 8.52e-06, "MEAN_MOTION_DDOT": 0}, "tle": {"line1": "1 36278U 99025DXF 25358.52794213  .00000852  00000+0  43606-3 0  9993", "line2": "2 36278  99.1252 277.1324 0060607 257.0871 102.3528 14.17401848936435"}}, "geometry": {"type": "Point", "coordinates": [99.34603663431697, 8.0922676374408]}}, {"type": "Feature", "properties": {"norad_id": 36279, "name": "FENGYUN 1C DEB", "group": "fengyun-1c-debris", "lat": 73.0207776627758, "lon": -52.668566352137425, "alt_km": 810.7068677968919, "timestamp": "2025-12-25T09:48:52.578443+00:00", "meta": {"OBJECT_NAME": "FENGYUN 1C DEB", "OBJECT_ID": "1999-025DXG", "EPOCH": "2025-12-24T04:36:30.849408", "MEAN_MOTION": 14.1473428, "ECCENTRICITY": 0.00624156, "INCLINATION": 98.5623, "RA_OF_ASC_NODE": 335.7298, "ARG_OF_PERICENTER": 22.9202, "MEAN_ANOMALY": 337.4736, "EPHEMERIS_TYPE": 0, "CLASSIFICATION_TYPE": "U", "NORAD_CAT_ID": 36279, "ELEMENT_SET_NO": 999, "REV_AT_EPOCH": 89201, "BSTAR": 0.00014307987, "MEAN_MOTION_DOT": 2.39e-06, "MEAN_MOTION_DDOT": 0}, "tle": {"line1": "1 36279U 99025DXG 25358.19202372  .00000239  00000+0  14308-3 0  9993", "line2": "2 36279  98.5623 335.7298 0062415  22.9202 337.4736 14.14734280892011"}}, "geometry": {"type": "Point", "coordinates": [-52.668566352137425, 73.0207776627758]}}, {"type": "Feature", "properties": {"norad_id": 36280, "name": "FENGYUN 1C DEB", "group": "fengyun-1c-debris", "lat": -64.7338969344236, "lon": -171.00939161589932, "alt_km": 903.6341872859002, "timestamp": "2025-12-25T09:48:52.578453+00:00", "meta": {"OBJECT_NAME": "FENGYUN 1C DEB", "OBJECT_ID": "1999-025DXH", "EPOCH": "2025-12-24T22:59:16.156896", "MEAN_MOTION": 14.09776084, "ECCENTRICITY": 0.0062613, "INCLINATION": 98.7659, "RA_OF_ASC_NODE": 27.633, "ARG_OF_PERICENTER": 30.8932, "MEAN_ANOMALY": 87.4685, "EPHEMERIS_TYPE": 0, "CLASSIFICATION_TYPE": "U", "NORAD_CAT_ID": 36280, "ELEMENT_SET_NO": 999, "REV_AT_EPOCH": 86526, "BSTAR": 0.00090349, "MEAN_MOTION_DOT": 1.574e-05, "MEAN_MOTION_DDOT": 0}, "tle": {"line1": "1 36280U 99025DXH 25358.95782589  .00001574  00000+0  90349-3 0  9994", "line2": "2 36280  98.7659  27.6330 0062613  30.8932  87.4685 14.09776084865260"}}, "geometry": {"type": "Point", "coordinates": [-171.00939161589932, -64.7338969344236]}}, {"type": "Feature", "properties": {"norad_id": 36281, "name": "FENGYUN 1C DEB", "group": "fengyun-1c-debris", "lat": 79.35079029942408, "lon": 160.86642749758798, "alt_km": 820.0514075596438, "timestamp": "2025-12-25T09:48:52.578463+00:00", "meta": {"OBJECT_NAME": "FENGYUN 1C DEB", "OBJECT_ID": "1999-025DXJ", "EPOCH": "2025-12-20T00:30:26.383680", "MEAN_MOTION": 13.60294135, "ECCENTRICITY": 0.02913999, "INCLINATION": 99.2595, "RA_OF_ASC_NODE": 275.5857, "ARG_OF_PERICENTER": 92.0584, "MEAN_ANOMALY": 271.3952, "EPHEMERIS_TYPE": 0, "CLASSIFICATION_TYPE": "U", "NORAD_CAT_ID": 36281, "ELEMENT_SET_NO": 999, "REV_AT_EPOCH": 84616, "BSTAR": 0.00281607, "MEAN_MOTION_DOT": 2.757e-05, "MEAN_MOTION_DDOT": 0}, "tle": {"line1": "1 36281U 99025DXJ 25354.02113870  .00002757  00000+0  28161-2 0  9996", "line2": "2 36281  99.2595 275.5857 0291399  92.0584 271.3952 13.60294135846169"}}, "geometry": {"type": "Point", "coordinates": [160.86642749758798, 79.35079029942408]}}, {"type": "Feature", "properties": {"norad_id": 36283, "name": "FENGYUN 1C DEB", "group": "fengyun-1c-debris", "lat": 68.09765823954442, "lon": 171.70632749473614, "alt_km": 545.814602744008, "timestamp": "2025-12-25T09:48:52.578473+00:00", "meta": {"OBJECT_NAME": "FENGYUN 1C DEB", "OBJECT_ID": "1999-025DXL", "EPOCH": "2025-12-24T15:48:14.147712", "MEAN_MOTION": 15.06937596, "ECCENTRICITY": 0.00659896, "INCLINATION": 99.4228, "RA_OF_ASC_NODE": 326.3914, "ARG_OF_PERICENTER": 12.9704, "MEAN_ANOMALY": 347.3196, "EPHEMERIS_TYPE": 0, "CLASSIFICATION_TYPE": "U", "NORAD_CAT_ID": 36283, "ELEMENT_SET_NO": 999, "REV_AT_EPOCH": 66845, "BSTAR": 0.0022105342, "MEAN_MOTION_DOT": 0.00034786, "MEAN_MOTION_DDOT": 0}, "tle": {"line1": "1 36283U 99025DXL 25358.65849708  .00034786  00000+0  22105-2 0  9996", "line2": "2 36283  99.4228 326.3914 0065989  12.9704 347.3196 15.06937596668459"}}, "geometry": {"type": "Point", "coordinates": [171.70632749473614, 68.09765823954442]}}, {"type": "Feature", "properties": {"norad_id": 36644, "name": "FENGYUN 1C DEB", "group": "fengyun-1c-debris", "lat": -53.45993784843879, "lon": -55.28220037836377, "alt_km": 1030.4997306372097, "timestamp": "2025-12-25T09:48:52.578482+00:00", "meta": {"OBJECT_NAME": "FENGYUN 1C DEB", "OBJECT_ID": "1999-025DXN", "EPOCH": "2025-12-20T03:15:14.582880", "MEAN_MOTION": 13.5921712, "ECCENTRICITY": 0.0285778, "INCLINATION": 98.4233, "RA_OF_ASC_NODE": 131.7114, "ARG_OF_PERICENTER": 160.4918, "MEAN_ANOMALY": 200.7431, "EPHEMERIS_TYPE": 0, "CLASSIFICATION_TYPE": "U", "NORAD_CAT_ID": 36644, "ELEMENT_SET_NO": 999, "REV_AT_EPOCH": 61668, "BSTAR": 0.0010197403, "MEAN_MOTION_DOT": 9.49e-06, "MEAN_MOTION_DDOT": 0}, "tle": {"line1": "1 36644U 99025DXN 25354.13558545  .00000949  00000+0  10197-2 0  9994", "line2": "2 36644  98.4233 131.7114 0285778 160.4918 200.7431 13.59217120616683"}}, "geometry": {"type": "Point", "coordinates": [-55.28220037836377, -53.45993784843879]}}, {"type": "Feature", "properties": {"norad_id": 36647, "name": "FENGYUN 1C DEB", "group": "fengyun-1c-debris", "lat": -59.95971746659648, "lon": 146.4639890901154, "alt_km": 797.2696080549404, "timestamp": "2025-12-25T09:48:52.578492+00:00", "meta": {"OBJECT_NAME": "FENGYUN 1C DEB", "OBJECT_ID": "1999-025DXR", "EPOCH": "2025-12-17T15:22:01.202880", "MEAN_MOTION": 13.88856712, "ECCENTRICITY": 0.02401846, "INCLINATION": 96.1202, "RA_OF_ASC_NODE": 130.6548, "ARG_OF_PERICENTER": 285.5466, "MEAN_ANOMALY": 71.9303, "EPHEMERIS_TYPE": 0, "CLASSIFICATION_TYPE": "U", "NORAD_CAT_ID": 36647, "ELEMENT_SET_NO": 999, "REV_AT_EPOCH": 30480, "BSTAR": 0.0022455743, "MEAN_MOTION_DOT": 3.394e-05, "MEAN_MOTION_DDOT": 0}, "tle": {"line1": "1 36647U 99025DXR 25351.64029170  .00003394  00000+0  22456-2 0  9995", "line2": "2 36647  96.1202 130.6548 0240184 285.5466  71.9303 13.88856712304807"}}, "geometry": {"type": "Point", "coordinates": [146.4639890901154, -59.95971746659648]}}, {"type": "Feature", "properties": {"norad_id": 36652, "name": "FENGYUN 1C DEB", "group": "fengyun-1c-debris", "lat": -39.66250165743107, "lon": -105.72938953378112, "alt_km": 825.2137471897131, "timestamp": "2025-12-25T09:48:52.578502+00:00", "meta": {"OBJECT_NAME": "FENGYUN 1C DEB", "OBJECT_ID": "1999-025DXW", "EPOCH": "2025-12-24T10:50:21.142176", "MEAN_MOTION": 14.22897296, "ECCENTRICITY": 0.00509453, "INCLINATION": 98.9403, "RA_OF_ASC_NODE": 80.7986, "ARG_OF_PERICENTER": 318.2449, "MEAN_ANOMALY": 41.4845, "EPHEMERIS_TYPE": 0, "CLASSIFICATION_TYPE": "U", "NORAD_CAT_ID": 36652, "ELEMENT_SET_NO": 999, "REV_AT_EPOCH": 64491, "BSTAR": 0.0017394097, "MEAN_MOTION_DOT": 3.918e-05, "MEAN_MOTION_DDOT": 0}, "tle": {"line1": "1 36652U 99025DXW 25358.45163359  .00003918  00000+0  17394-2 0  9992", "line2": "2 36652  98.9403  80.7986 0050945 318.2449  41.4845 14.22897296644919"}}, "geometry": {"type": "Point", "coordinates": [-105.72938953378112, -39.66250165743107]}}, {"type": "Feature", "properties": {"norad_id": 36657, "name": "FENGYUN 1C DEB", "group": "fengyun-1c-debris", "lat": -8.465389046884777, "lon": -29.259120782189143, "alt_km": 748.7935845953571, "timestamp": "2025-12-25T09:48:52.578512+00:00", "meta": {"OBJECT_NAME": "FENGYUN 1C DEB", "OBJECT_ID": "1999-025DYB", "EPOCH": "2025-12-24T16:34:37.790688", "MEAN_MOTION": 14.65600132, "ECCENTRICITY": 0.01054242, "INCLINATION": 99.4135, "RA_OF_ASC_NODE": 151.3338, "ARG_OF_PERICENTER": 30.9032, "MEAN_ANOMALY": 329.8315, "EPHEMERIS_TYPE": 0, "CLASSIFICATION_TYPE": "U", "NORAD_CAT_ID": 36657, "ELEMENT_SET_NO": 999, "REV_AT_EPOCH": 66431, "BSTAR": 0.000583973, "MEAN_MOTION_DOT": 3.376e-05, "MEAN_MOTION_DDOT": 0}, "tle": {"line1": "1 36657U 99025DYB 25358.69071517  .00003376  00000+0  58397-3 0  9994", "line2": "2 36657  99.4135 151.3338 0105424  30.9032 329.8315 14.65600132664316"}}, "geometry": {"type": "Point", "coordinates": [-29.259120782189143, -8.465389046884777]}}, {"type": "Feature", "properties": {"norad_id": 36659, "name": "FENGYUN 1C DEB", "group": "fengyun-1c-debris", "lat": -38.73068199580585, "lon": 175.56216868940137, "alt_km": 1043.3848289374946, "timestamp": "2025-12-25T09:48:52.578521+00:00", "meta": {"OBJECT_NAME": "FENGYUN 1C DEB", "OBJECT_ID": "1999-025DYD", "EPOCH": "2025-12-18T07:09:04.054176", "MEAN_MOTION": 13.87384482, "ECCENTRICITY": 0.01357919, "INCLINATION": 99.8541, "RA_OF_ASC_NODE": 356.081, "ARG_OF_PERICENTER": 60.2917, "MEAN_ANOMALY": 301.1674, "EPHEMERIS_TYPE": 0, "CLASSIFICATION_TYPE": "U", "NORAD_CAT_ID": 36659, "ELEMENT_SET_NO": 999, "REV_AT_EPOCH": 60502, "BSTAR": 0.00061832075, "MEAN_MOTION_DOT": 7.35e-06, "MEAN_MOTION_DDOT": 0}, "tle": {"line1": "1 36659U 99025DYD 25352.29796359  .00000735  00000+0  61832-3 0  9998", "line2": "2 36659  99.8541 356.0810 0135791  60.2917 301.1674 13.87384482605024"}}, "geometry": {"type": "Point", "coordinates": [175.56216868940137, -38.73068199580585]}}]}